IRIDIUM 159             
1 43578U 18061K   24253.56836137  .00000837  00000+0  29189-3 0  9997
2 43578  86.4000 326.5287 0002147  96.0531 264.0909 14.34218494320845
IRIDIUM 180             
1 43922U 19002A   24253.56785155  .00000024  00000+0  16041-5 0  9992
2 43922  86.3907 263.3712 0002395  89.1145 271.0326 14.34216145296454
IRIDIUM 176             
1 43923U 19002B   24253.53370777  .00001528  00000+0  23840-3 0  9993
2 43923  86.6035 263.4002 0002559  91.0185 269.1325 14.72257429304258
IRIDIUM 168             
1 43924U 19002C   24253.56151623 -.00000025  00000+0 -15939-4 0  9998
2 43924  86.3910 263.4328 0002225  90.7308 269.4143 14.34217109296432
IRIDIUM 173             
1 43925U 19002D   24253.75813508 -.00000051  00000+0 -25193-4 0  9999
2 43925  86.3906 263.2660 0002210  88.0774 272.0675 14.34217115296455
IRIDIUM 169             
1 43926U 19002E   24253.56603364  .00001193  00000+0  38366-3 0  9997
2 43926  86.4192 294.9967 0001556  36.2526 323.8777 14.38609353297404
IRIDIUM 172             
1 43927U 19002F   24253.54248562  .00000009  00000+0 -39606-5 0  9997
2 43927  86.3906 263.3620 0002097  92.3601 267.7835 14.34217298296422
IRIDIUM 175             
1 43928U 19002G   24253.46020395  .00001940  00000+0  30359-3 0  9999
2 43928  86.1490 231.8160 0002290  89.4691 270.6788 14.72267258304231
